[{"OBJECT_NAME":"ONEWEB-0568","OBJECT_ID":"2023-043S","EPOCH":"2026-03-08T00:15:48.860352","MEAN_MOTION":13.16596729,"ECCENTRICITY":0.0001548,"INCLINATION":87.9008,"RA_OF_ASC_NODE":248.8962,"ARG_OF_PERICENTER":84.6836,"MEAN_ANOMALY":275.4471,"EPHEMERIS_TYPE":0,"CLASSIFICATION_TYPE":"U","NORAD_CAT_ID":56062,"ELEMENT_SET_NO":999,"REV_AT_EPOCH":14566,"BSTAR":0.00017752,"MEAN_MOTION_DOT":8.1e-7,"MEAN_MOTION_DDOT":0},{"OBJECT_NAME":"ONEWEB-0574","OBJECT_ID":"2023-043T","EPOCH":"2026-03-08T01:28:54.029280","MEAN_MOTION":13.21825688,"ECCENTRICITY":0.0001436,"INCLINATION":87.9174,"RA_OF_ASC_NODE":264.1309,"ARG_OF_PERICENTER":90.5851,"MEAN_ANOMALY":269.5448,"EPHEMERIS_TYPE":0,"CLASSIFICATION_TYPE":"U","NORAD_CAT_ID":56063,"ELEMENT_SET_NO":999,"REV_AT_EPOCH":14491,"BSTAR":-9.7194e-5,"MEAN_MOTION_DOT":-2.7e-7,"MEAN_MOTION_DDOT":0},{"OBJECT_NAME":"ONEWEB-0575","OBJECT_ID":"2023-043U","EPOCH":"2026-03-08T00:06:40.908096","MEAN_MOTION":13.16593849,"ECCENTRICITY":0.0001191,"INCLINATION":87.9002,"RA_OF_ASC_NODE":248.8949,"ARG_OF_PERICENTER":85.6312,"MEAN_ANOMALY":274.4955,"EPHEMERIS_TYPE":0,"CLASSIFICATION_TYPE":"U","NORAD_CAT_ID":56064,"ELEMENT_SET_NO":999,"REV_AT_EPOCH":14565,"BSTAR":7.5836e-6,"MEAN_MOTION_DOT":1.6e-7,"MEAN_MOTION_DDOT":0},{"OBJECT_NAME":"ONEWEB-0576","OBJECT_ID":"2023-043V","EPOCH":"2026-03-08T01:28:45.807456","MEAN_MOTION":13.16593682,"ECCENTRICITY":0.0001395,"INCLINATION":87.9008,"RA_OF_ASC_NODE":248.8875,"ARG_OF_PERICENTER":91.8984,"MEAN_ANOMALY":268.2306,"EPHEMERIS_TYPE":0,"CLASSIFICATION_TYPE":"U","NORAD_CAT_ID":56065,"ELEMENT_SET_NO":999,"REV_AT_EPOCH":14565,"BSTAR":-0.00010752,"MEAN_MOTION_DOT":-2.8e-7,"MEAN_MOTION_DDOT":0},{"OBJECT_NAME":"ONEWEB-0577","OBJECT_ID":"2023-043W","EPOCH":"2026-03-08T01:37:52.873248","MEAN_MOTION":13.1659354,"ECCENTRICITY":7.98e-5,"INCLINATION":87.9006,"RA_OF_ASC_NODE":248.8851,"ARG_OF_PERICENTER":90.6438,"MEAN_ANOMALY":269.4784,"EPHEMERIS_TYPE":0,"CLASSIFICATION_TYPE":"U","NORAD_CAT_ID":56066,"ELEMENT_SET_NO":999,"REV_AT_EPOCH":14568,"BSTAR":-2.4922e-5,"MEAN_MOTION_DOT":3.0e-8,"MEAN_MOTION_DDOT":0},{"OBJECT_NAME":"ONEWEB-0578","OBJECT_ID":"2023-043X","EPOCH":"2026-03-08T01:09:54.790848","MEAN_MOTION":13.21827639,"ECCENTRICITY":0.0001665,"INCLINATION":87.9169,"RA_OF_ASC_NODE":264.1402,"ARG_OF_PERICENTER":82.3683,"MEAN_ANOMALY":277.764,"EPHEMERIS_TYPE":0,"CLASSIFICATION_TYPE":"U","NORAD_CAT_ID":56067,"ELEMENT_SET_NO":999,"REV_AT_EPOCH":14487,"BSTAR":0.00019222,"MEAN_MOTION_DOT":9.2e-7,"MEAN_MOTION_DDOT":0},{"OBJECT_NAME":"ONEWEB-0579","OBJECT_ID":"2023-043Y","EPOCH":"2026-03-08T00:55:43.040640","MEAN_MOTION":13.21826425,"ECCENTRICITY":0.0001672,"INCLINATION":87.9174,"RA_OF_ASC_NODE":264.1328,"ARG_OF_PERICENTER":101.9402,"MEAN_ANOMALY":258.1919,"EPHEMERIS_TYPE":0,"CLASSIFICATION_TYPE":"U","NORAD_CAT_ID":56068,"ELEMENT_SET_NO":999,"REV_AT_EPOCH":14488,"BSTAR":0.00026742,"MEAN_MOTION_DOT":1.23e-6,"MEAN_MOTION_DDOT":0},{"OBJECT_NAME":"ONEWEB-0581","OBJECT_ID":"2023-043Z","EPOCH":"2026-03-07T23:57:34.250976","MEAN_MOTION":13.16594252,"ECCENTRICITY":0.0001011,"INCLINATION":87.9007,"RA_OF_ASC_NODE":248.9102,"ARG_OF_PERICENTER":97.4001,"MEAN_ANOMALY":262.7245,"EPHEMERIS_TYPE":0,"CLASSIFICATION_TYPE":"U","NORAD_CAT_ID":56069,"ELEMENT_SET_NO":999,"REV_AT_EPOCH":14564,"BSTAR":-0.00024727,"MEAN_MOTION_DOT":-8.2e-7,"MEAN_MOTION_DDOT":0},{"OBJECT_NAME":"ONEWEB-0609","OBJECT_ID":"2023-043AA","EPOCH":"2026-03-08T02:29:08.332224","MEAN_MOTION":13.15547567,"ECCENTRICITY":0.0001697,"INCLINATION":87.8936,"RA_OF_ASC_NODE":279.4006,"ARG_OF_PERICENTER":88.2473,"MEAN_ANOMALY":271.8852,"EPHEMERIS_TYPE":0,"CLASSIFICATION_TYPE":"U","NORAD_CAT_ID":56070,"ELEMENT_SET_NO":999,"REV_AT_EPOCH":14314,"BSTAR":0.00053138,"MEAN_MOTION_DOT":2.13e-6,"MEAN_MOTION_DDOT":0},{"OBJECT_NAME":"ONEWEB-0613","OBJECT_ID":"2023-043AB","EPOCH":"2026-03-08T02:22:17.741280","MEAN_MOTION":13.15547666,"ECCENTRICITY":0.0001734,"INCLINATION":87.8938,"RA_OF_ASC_NODE":279.4123,"ARG_OF_PERICENTER":96.9144,"MEAN_ANOMALY":263.2184,"EPHEMERIS_TYPE":0,"CLASSIFICATION_TYPE":"U","NORAD_CAT_ID":56071,"ELEMENT_SET_NO":999,"REV_AT_EPOCH":14314,"BSTAR":0.0003703,"MEAN_MOTION_DOT":1.52e-6,"MEAN_MOTION_DDOT":0},{"OBJECT_NAME":"ONEWEB-0630","OBJECT_ID":"2023-043AC","EPOCH":"2026-03-08T02:15:26.915328","MEAN_MOTION":13.15548702,"ECCENTRICITY":0.0001634,"INCLINATION":87.8938,"RA_OF_ASC_NODE":279.3824,"ARG_OF_PERICENTER":97.6434,"MEAN_ANOMALY":262.4882,"EPHEMERIS_TYPE":0,"CLASSIFICATION_TYPE":"U","NORAD_CAT_ID":56072,"ELEMENT_SET_NO":999,"REV_AT_EPOCH":14313,"BSTAR":0.00031146,"MEAN_MOTION_DOT":1.3e-6,"MEAN_MOTION_DDOT":0},{"OBJECT_NAME":"ONEWEB-0632","OBJECT_ID":"2023-043AD","EPOCH":"2026-03-08T00:19:04.876032","MEAN_MOTION":13.15547571,"ECCENTRICITY":0.0001394,"INCLINATION":87.8939,"RA_OF_ASC_NODE":279.4162,"ARG_OF_PERICENTER":91.2745,"MEAN_ANOMALY":268.8545,"EPHEMERIS_TYPE":0,"CLASSIFICATION_TYPE":"U","NORAD_CAT_ID":56073,"ELEMENT_SET_NO":999,"REV_AT_EPOCH":14312,"BSTAR":6.6124e-5,"MEAN_MOTION_DOT":3.8e-7,"MEAN_MOTION_DDOT":0},{"OBJECT_NAME":"ONEWEB-0633","OBJECT_ID":"2023-043AE","EPOCH":"2026-03-08T01:59:28.538880","MEAN_MOTION":13.15547511,"ECCENTRICITY":0.0001973,"INCLINATION":87.8947,"RA_OF_ASC_NODE":279.37,"ARG_OF_PERICENTER":97.504,"MEAN_ANOMALY":262.6314,"EPHEMERIS_TYPE":0,"CLASSIFICATION_TYPE":"U","NORAD_CAT_ID":56074,"ELEMENT_SET_NO":999,"REV_AT_EPOCH":14311,"BSTAR":-0.0001653,"MEAN_MOTION_DOT":-4.9e-7,"MEAN_MOTION_DDOT":0},{"OBJECT_NAME":"ONEWEB-0634","OBJECT_ID":"2023-043AF","EPOCH":"2026-03-08T01:38:56.352192","MEAN_MOTION":13.15547673,"ECCENTRICITY":0.0001873,"INCLINATION":87.8939,"RA_OF_ASC_NODE":279.4215,"ARG_OF_PERICENTER":81.8758,"MEAN_ANOMALY":278.2585,"EPHEMERIS_TYPE":0,"CLASSIFICATION_TYPE":"U","NORAD_CAT_ID":56075,"ELEMENT_SET_NO":999,"REV_AT_EPOCH":14310,"BSTAR":-0.00017587,"MEAN_MOTION_DOT":-5.3e-7,"MEAN_MOTION_DDOT":0},{"OBJECT_NAME":"ONEWEB-0635","OBJECT_ID":"2023-043AG","EPOCH":"2026-03-08T03:21:36.710208","MEAN_MOTION":13.15548051,"ECCENTRICITY":0.0001286,"INCLINATION":87.8947,"RA_OF_ASC_NODE":279.3609,"ARG_OF_PERICENTER":89.7864,"MEAN_ANOMALY":270.3414,"EPHEMERIS_TYPE":0,"CLASSIFICATION_TYPE":"U","NORAD_CAT_ID":56076,"ELEMENT_SET_NO":999,"REV_AT_EPOCH":14314,"BSTAR":-3.3976e-5,"MEAN_MOTION_DOT":0,"MEAN_MOTION_DDOT":0},{"OBJECT_NAME":"ONEWEB-0636","OBJECT_ID":"2023-043AH","EPOCH":"2026-03-08T03:10:12.397152","MEAN_MOTION":13.15547807,"ECCENTRICITY":0.0001376,"INCLINATION":87.8941,"RA_OF_ASC_NODE":279.3771,"ARG_OF_PERICENTER":87.3564,"MEAN_ANOMALY":272.7723,"EPHEMERIS_TYPE":0,"CLASSIFICATION_TYPE":"U","NORAD_CAT_ID":56077,"ELEMENT_SET_NO":999,"REV_AT_EPOCH":14312,"BSTAR":-9.2011e-5,"MEAN_MOTION_DOT":-2.2e-7,"MEAN_MOTION_DDOT":0},{"OBJECT_NAME":"ONEWEB-0637","OBJECT_ID":"2023-043AJ","EPOCH":"2026-03-08T03:01:05.290752","MEAN_MOTION":13.15549041,"ECCENTRICITY":0.0001454,"INCLINATION":87.8938,"RA_OF_ASC_NODE":279.3964,"ARG_OF_PERICENTER":75.3556,"MEAN_ANOMALY":284.7736,"EPHEMERIS_TYPE":0,"CLASSIFICATION_TYPE":"U","NORAD_CAT_ID":56078,"ELEMENT_SET_NO":999,"REV_AT_EPOCH":14314,"BSTAR":0.00036793,"MEAN_MOTION_DOT":1.51e-6,"MEAN_MOTION_DDOT":0}]
