ONEWEB-0568             
1 56062U 23043S   26067.01098218  .00000081  00000+0  17752-3 0  9994
2 56062  87.9008 248.8962 0001548  84.6836 275.4471 13.16596729145666
ONEWEB-0574             
1 56063U 23043T   26067.06173645 -.00000027  00000+0 -97194-4 0  9999
2 56063  87.9174 264.1309 0001436  90.5851 269.5448 13.21825688144916
ONEWEB-0575             
1 56064U 23043U   26067.00464014  .00000016  00000+0  75836-5 0  9993
2 56064  87.9002 248.8949 0001191  85.6312 274.4955 13.16593849145656
ONEWEB-0576             
1 56065U 23043V   26067.06164129 -.00000028  00000+0 -10752-3 0  9993
2 56065  87.9008 248.8875 0001395  91.8984 268.2306 13.16593682145657
ONEWEB-0577             
1 56066U 23043W   26067.06797307  .00000003  00000+0 -24922-4 0  9991
2 56066  87.9006 248.8851 0000798  90.6438 269.4784 13.16593540145686
ONEWEB-0578             
1 56067U 23043X   26067.04855082  .00000092  00000+0  19222-3 0  9998
2 56067  87.9169 264.1402 0001665  82.3683 277.7640 13.21827639144872
ONEWEB-0579             
1 56068U 23043Y   26067.03869260  .00000123  00000+0  26742-3 0  9991
2 56068  87.9174 264.1328 0001672 101.9402 258.1919 13.21826425144886
ONEWEB-0581             
1 56069U 23043Z   26066.99831309 -.00000082  00000+0 -24727-3 0  9996
2 56069  87.9007 248.9102 0001011  97.4001 262.7245 13.16594252145645
ONEWEB-0609             
1 56070U 23043AA  26067.10356866  .00000213  00000+0  53138-3 0  9994
2 56070  87.8936 279.4006 0001697  88.2473 271.8852 13.15547567143144
ONEWEB-0613             
1 56071U 23043AB  26067.09881645  .00000152  00000+0  37030-3 0  9996
2 56071  87.8938 279.4123 0001734  96.9144 263.2184 13.15547666143143
ONEWEB-0630             
1 56072U 23043AC  26067.09406152  .00000130  00000+0  31146-3 0  9991
2 56072  87.8938 279.3824 0001634  97.6434 262.4882 13.15548702143137
ONEWEB-0632             
1 56073U 23043AD  26067.01325088  .00000038  00000+0  66124-4 0  9994
2 56073  87.8939 279.4162 0001394  91.2745 268.8545 13.15547571143121
ONEWEB-0633             
1 56074U 23043AE  26067.08296920 -.00000049  00000+0 -16530-3 0  9993
2 56074  87.8947 279.3700 0001973  97.5040 262.6314 13.15547511143117
ONEWEB-0634             
1 56075U 23043AF  26067.06870778 -.00000053  00000+0 -17587-3 0  9999
2 56075  87.8939 279.4215 0001873  81.8758 278.2585 13.15547673143103
ONEWEB-0635             
1 56076U 23043AG  26067.14000822  .00000000  00000+0 -33976-4 0  9996
2 56076  87.8947 279.3609 0001286  89.7864 270.3414 13.15548051143141
ONEWEB-0636             
1 56077U 23043AH  26067.13208793 -.00000022  00000+0 -92011-4 0  9993
2 56077  87.8941 279.3771 0001376  87.3564 272.7723 13.15547807143122
ONEWEB-0637             
1 56078U 23043AJ  26067.12575568  .00000151  00000+0  36793-3 0  9995
2 56078  87.8938 279.3964 0001454  75.3556 284.7736 13.15549041143149
